{
    "links": {
        "self": "http://www.neowsapp.com/rest/v1/neo/3545414?api_key=iIulBulltgU6a56xZRHN4H3l9WmuAYTsLGpBGhQ2"
    },
    "id": "3545414",
    "neo_reference_id": "3545414",
    "name": "(2010 RC)",
    "designation": "2010 RC",
    "nasa_jpl_url": "http://ssd.jpl.nasa.gov/sbdb.cgi?sstr=3545414",
    "absolute_magnitude_h": 26.4,
    "estimated_diameter": {
        "kilometers": {
            "estimated_diameter_min": 0.0139493823,
            "estimated_diameter_max": 0.0311917671
        },
        "meters": {
            "estimated_diameter_min": 13.9493822934,
            "estimated_diameter_max": 31.1917670523
        },
        "miles": {
            "estimated_diameter_min": 0.0086677416,
            "estimated_diameter_max": 0.0193816595
        },
        "feet": {
            "estimated_diameter_min": 45.7656914036,
            "estimated_diameter_max": 102.3351970157
        }
    },
    "is_potentially_hazardous_asteroid": false,
    "close_approach_data": [
        {
            "close_approach_date": "2010-08-29",
            "close_approach_date_full": "2010-Aug-29 18:03",
            "epoch_date_close_approach": 1283104980000,
            "relative_velocity": {
                "kilometers_per_second": "7.1027578014",
                "kilometers_per_hour": "25569.9280849962",
                "miles_per_hour": "15888.1589259244"
            },
            "miss_distance": {
                "astronomical": "0.0237909241",
                "lunar": "9.2546694749",
                "kilometers": "3559071.570691667",
                "miles": "2211504.5252003246"
            },
            "orbiting_body": "Earth"
        }
    ],
    "orbital_data": {
        "orbit_id": "10",
        "orbit_determination_date": "2017-04-06 08:56:57",
        "first_observation_date": "2010-09-01",
        "last_observation_date": "2010-09-17",
        "data_arc_in_days": 16,
        "observations_used": 21,
        "orbit_uncertainty": "8",
        "minimum_orbit_intersection": ".0213704",
        "jupiter_tisserand_invariant": "3.868",
        "epoch_osculation": "2455447.5",
        "eccentricity": ".447484602778536",
        "semi_major_axis": "1.854693715970681",
        "inclination": "5.61828582831625",
        "ascending_node_longitude": "159.4810174183126",
        "orbital_period": "922.5857187521581",
        "perihelion_distance": "1.024746835203694",
        "perihelion_argument": "164.4088459442689",
        "aphelion_distance": "2.684640596737668",
        "perihelion_time": "2455427.857875401156",
        "mean_anomaly": "7.664507169206925",
        "mean_motion": ".3902076443226516",
        "equinox": "J2000",
        "orbit_class": {
            "orbit_class_type": "AMO",
            "orbit_class_description": "Near-Earth asteroid orbits similar to that of 1221 Amor",
            "orbit_class_range": "1.017 AU < q (perihelion) < 1.3 AU"
        }
    },
    "is_sentry_object": false
}